NORAD_CAT_ID,OBJECT_NAME,OBJECT_TYPE,EPOCH,MEAN_MOTION,ECCENTRICITY,INCLINATION,RA_OF_ASC_NODE,ARG_OF_PERICENTER,MEAN_ANOMALY,BSTAR,MEAN_MOTION_DOT,MEAN_MOTION_DDOT,TLE_LINE0,TLE_LINE1,TLE_LINE2,SEMIMAJOR_AXIS,PERIOD,APOGEE,PERIGEE,DECAYED
49733.0,STARLINK-3252,PAYLOAD,2022-01-24 22:00:00,15.08839306,0.0002336,53.2134,74.343,30.8917,208.1053,0.00010809,1.432e-05,0.0,0 STARLINK-3252,1 49733U 21115K   22024.91667824  .00001432  00000-0  10809-3 0  9990,2 49733  53.2134  74.3430 0002336  30.8917 208.1053 15.08839306  3587,6917.8830000000025,95.438,541.364,538.131,0.0
49733.0,STARLINK-3252,PAYLOAD,2022-01-25 06:00:00,15.08859449,0.0002373,53.2136,72.8469,32.1364,218.4517,-0.0013048,-0.00021006,0.0,0 STARLINK-3252,1 49733U 21115K   22025.25001157 -.00021006  00000-0 -13048-2 0  9997,2 49733  53.2136  72.8469 0002373  32.1364 218.4517 15.08859449  9389,6917.821,95.436,541.328,538.044,0.0
49733.0,STARLINK-3252,PAYLOAD,2022-01-25 14:00:01,15.08831649,0.0002551,53.2137,71.3517,28.2663,233.9364,0.00037715,5.718e-05,0.0,0 STARLINK-3252,1 49733U 21115K   22025.58334491  .00005718  00000-0  37715-3 0  9991,2 49733  53.2137  71.3517 0002551  28.2663 233.9364 15.08831649  3573,6917.906,95.438,541.536,538.006,0.0
49733.0,STARLINK-3252,PAYLOAD,2022-01-25 22:00:00,15.08814028,0.0002343,53.214,69.8534,29.7147,244.0856,0.0017258,0.00027266,0.0,0 STARLINK-3252,1 49733U 21115K   22025.91667824  .00027266  00000-0  17258-2 0  9998,2 49733  53.2140  69.8534 0002343  29.7147 244.0856 15.08814028  3616,6917.96,95.439,541.446,538.2040000000002,0.0
49733.0,STARLINK-3252,PAYLOAD,2022-01-26 06:00:00,15.08851721,0.0002405,53.2142,68.3576,31.1574,254.2192,-0.0012897,-0.00020763,0.0,0 STARLINK-3252,1 49733U 21115K   22026.25001157 -.00020763  00000-0 -12897-2 0  9998,2 49733  53.2142  68.3576 0002405  31.1574 254.2192 15.08851721  9532,6917.845,95.437,541.373,538.0459999999998,0.0
49733.0,STARLINK-3252,PAYLOAD,2022-01-26 14:00:01,15.08825389,0.0002588,53.214,66.8622,28.5815,268.4019,0.0026743,0.00042515,0.0,0 STARLINK-3252,1 49733U 21115K   22026.58334491  .00042515  00000-0  26743-2 0  9996,2 49733  53.2140  66.8622 0002588  28.5815 268.4019 15.08825389  3568,6917.925,95.438,541.58,538.0,0.0
49733.0,STARLINK-3252,PAYLOAD,2022-01-26 22:00:00,15.08830482,0.0002369,53.2143,65.3641,31.3143,277.2729,0.0021992,0.00034878,0.0,0 STARLINK-3252,1 49733U 21115K   22026.91667824  .00034878  00000-0  21992-2 0  9996,2 49733  53.2143  65.3641 0002369  31.3143 277.2729 15.08830482  9639,6917.909000000002,95.438,541.413,538.136,0.0
49733.0,STARLINK-3252,PAYLOAD,2022-01-27 09:21:21,15.08846666,0.0002457,53.2144,63.24,32.876999999999995,327.2375,6.6252e-05,7.66e-06,0.0,0 STARLINK-3252,1 49733U 21115K   22027.38983401  .00000766  00000-0  66252-4 0  9999,2 49733  53.2144  63.2400 0002457  32.8770 327.2375 15.08846666  8598,6917.86,95.437,541.425,538.025,0.0
49733.0,STARLINK-3252,PAYLOAD,2022-01-27 22:00:00,15.08814001,0.0002326,53.214,60.8748,30.6218,312.7586,0.0025145,0.0003993,0.0,0 STARLINK-3252,1 49733U 21115K   22027.91667824  .00039930  00000-0  25145-2 0  9995,2 49733  53.2140  60.8748 0002326  30.6218 312.7586 15.08814001  9783,6917.96,95.439,541.434,538.216,0.0
49733.0,STARLINK-3252,PAYLOAD,2022-01-28 10:00:00,15.08811889,0.0002523,53.2141,58.632,28.2583,152.5042,4.1428e-05,3.71e-06,0.0,0 STARLINK-3252,1 49733U 21115K   22028.41667824  .00000371  00000-0  41428-4 0  9992,2 49733  53.2141  58.6320 0002523  28.2583 152.5042 15.08811889  9869,6917.965999999999,95.439,541.577,538.086,0.0
49733.0,STARLINK-3252,PAYLOAD,2022-01-28 12:00:00,15.08792708,0.0002556,53.214,58.2581,27.6886,245.9708,0.0026991,0.00042875,0.0,0 STARLINK-3252,1 49733U 21115K   22028.50001157  .00042875  00000-0  26991-2 0  9994,2 49733  53.2140  58.2581 0002556  27.6886 245.9708 15.08792708  3574,6918.025,95.441,541.658,538.122,0.0
49733.0,STARLINK-3252,PAYLOAD,2022-01-28 22:00:00,15.08794995,0.0002322,53.2135,56.3856,30.6088,347.5095,0.0028874,0.00045909,0.0,0 STARLINK-3252,1 49733U 21115K   22028.91667824  .00045909  00000-0  28874-2 0  9991,2 49733  53.2135  56.3856 0002322  30.6088 347.5095 15.08794995  3580,6918.018,95.44,541.489,538.2769999999998,0.0
49733.0,STARLINK-3252,PAYLOAD,2022-01-29 14:00:01,15.08823349,0.0002609,53.2131,53.3944,28.7928,12.4691,0.0011961,0.00018791,0.0,0 STARLINK-3252,1 49733U 21115K   22029.58334491  .00018791  00000-0  11961-2 0  9994,2 49733  53.2131  53.3944 0002609  28.7928  12.4691 15.08823349 10034,6917.931,95.439,541.601,537.991,0.0
49733.0,STARLINK-3252,PAYLOAD,2022-01-29 22:00:00,15.08811543,0.0002411,53.213,51.8961,32.7189,20.138,0.0030775,0.00048994,0.0,0 STARLINK-3252,1 49733U 21115K   22029.91667824  .00048994  00000-0  30775-2 0  9992,2 49733  53.2130  51.8961 0002411  32.7189  20.1380 15.08811543  3609,6917.967,95.439,541.5,538.164,0.0
49733.0,STARLINK-3252,PAYLOAD,2022-01-30 14:00:01,15.08850935,0.0002702,53.2128,48.9046,30.0829,45.9581,4.0943e-06,-2.23e-06,0.0,0 STARLINK-3252,1 49733U 21115K   22030.58334491 -.00000223  00000-0  40943-5 0  9993,2 49733  53.2128  48.9046 0002702  30.0829  45.9581 15.08850935  3608,6917.847,95.437,541.581,537.8430000000002,0.0
49733.0,STARLINK-3252,PAYLOAD,2022-01-30 22:00:00,15.08817974,0.000248,53.2129,47.4062,32.7531,54.9062,0.0016937,0.00026754,0.0,0 STARLINK-3252,1 49733U 21115K   22030.91667824  .00026754  00000-0  16937-2 0  9998,2 49733  53.2129  47.4062 0002480  32.7531  54.9062 15.08817974 10230,6917.948,95.439,541.528,538.097,0.0
49733.0,STARLINK-3252,PAYLOAD,2022-01-31 14:00:01,15.08839789,0.0002781,53.213,44.4146,30.6613,80.2283,0.00047066,7.209999999999999e-05,0.0,0 STARLINK-3252,1 49733U 21115K   22031.58335648  .00007210  00000-0  47066-3 0  9992,2 49733  53.2130  44.4146 0002781  30.6613  80.2283 15.08839789  3590,6917.880999999999,95.438,541.67,537.822,0.0
49733.0,STARLINK-3252,PAYLOAD,2022-01-31 22:00:01,15.08831161,0.0002587,53.2132,42.9162,33.8177,88.6777,0.001903,0.00030122,0.0,0 STARLINK-3252,1 49733U 21115K   22031.91668981  .00030122  00000-0  19030-2 0  9995,2 49733  53.2132  42.9162 0002587  33.8177  88.6777 15.08831161 10388,6917.906999999997,95.438,541.562,537.9830000000002,0.0
49733.0,STARLINK-3252,PAYLOAD,2022-02-01 14:00:01,15.08839338,0.0002826,53.2134,39.9245,30.9725,114.7146,3.1002e-05,2.05e-06,0.0,0 STARLINK-3252,1 49733U 21115K   22032.58335648  .00000205  00000-0  31002-4 0  9994,2 49733  53.2134  39.9245 0002826  30.9725 114.7146 15.08839338 10498,6917.882,95.438,541.702,537.7919999999998,0.0
49733.0,STARLINK-3252,PAYLOAD,2022-02-01 22:00:00,15.08829068,0.0002631,53.2137,38.4264,34.1478,123.0752,0.0016937,0.00026763,0.0,0 STARLINK-3252,1 49733U 21115K   22032.91667824  .00026763  00000-0  16937-2 0  9990,2 49733  53.2137  38.4264 0002631  34.1478 123.0752 15.08829068  3599,6917.9140000000025,95.438,541.599,537.9590000000002,0.0
49733.0,STARLINK-3252,PAYLOAD,2022-02-02 14:00:01,15.08835086,0.0002839,53.2139,35.4347,31.3189,149.0732,-0.00065795,-0.00010744,0.0,0 STARLINK-3252,1 49733U 21115K   22033.58334491 -.00010744  00000-0 -65795-3 0  9996,2 49733  53.2139  35.4347 0002839  31.3189 149.0732 15.08835086  3603,6917.895,95.438,541.724,537.7959999999998,0.0
49733.0,STARLINK-3252,PAYLOAD,2022-02-02 22:00:00,15.0881605,0.0002646,53.2142,33.9367,35.0083,156.9743,0.0025341,0.00040248,0.0,0 STARLINK-3252,1 49733U 21115K   22033.91667824  .00040248  00000-0  25341-2 0  9994,2 49733  53.2142  33.9367 0002646  35.0083 156.9743 15.08816050 10698,6917.954000000002,95.439,541.649,537.988,0.0
49733.0,STARLINK-3252,PAYLOAD,2022-02-03 14:00:01,15.08858874,0.0002866,53.2142,30.945,33.6934,181.4683,-0.001183,-0.00019078,0.0,0 STARLINK-3252,1 49733U 21115K   22034.58334491 -.00019078  00000-0 -11830-2 0  9996,2 49733  53.2142  30.9450 0002866  33.6934 181.4683 15.08858874 10798,6917.823,95.436,541.67,537.705,0.0
49733.0,STARLINK-3252,PAYLOAD,2022-02-03 22:00:01,15.08842809,0.000266,53.2145,29.4471,37.2737,189.5679,0.0020383,0.00032304,0.0,0 STARLINK-3252,1 49733U 21115K   22034.91668981  .00032304  00000-0  20383-2 0  9995,2 49733  53.2145  29.4471 0002660  37.2737 189.5679 15.08842809  3595,6917.871999999999,95.437,541.577,537.8969999999998,0.0
49733.0,STARLINK-3252,PAYLOAD,2022-02-04 06:00:00,15.08864154,0.0002831,53.2146,27.9523,34.8697,203.5383,-0.0023156999999999,-0.00036981,0.0,0 STARLINK-3252,1 49733U 21115K   22035.25001157 -.00036981  00000-0 -23157-2 0  9998,2 49733  53.2146  27.9523 0002831  34.8697 203.5383 15.08864154 10892,6917.807,95.436,541.63,537.7130000000002,0.0
49733.0,STARLINK-3252,PAYLOAD,2022-02-04 14:00:01,15.08866691,0.0002768999999999,53.2143,26.4554,33.8629,216.2145,-0.0015531,-0.00024941,0.0,0 STARLINK-3252,1 49733U 21115K   22035.58335648 -.00024941  00000-0 -15531-2 0  9999,2 49733  53.2143  26.4554 0002769  33.8629 216.2145 15.08866691  3595,6917.799,95.436,541.5790000000002,537.748,0.0
49733.0,STARLINK-3252,PAYLOAD,2022-02-04 22:00:00,15.08845969,0.0002549,53.2144,24.9577,36.4795,225.1511,-0.00083797,-0.00013603,0.0,0 STARLINK-3252,1 49733U 21115K   22035.91667824 -.00013603  00000-0 -83797-3 0  9993,2 49733  53.2144  24.9577 0002549  36.4795 225.1511 15.08845969 10996,6917.861999999999,95.437,541.491,537.964,0.0
49733.0,STARLINK-3252,PAYLOAD,2022-02-05 06:00:00,15.0883813,0.0002743,53.2144,23.4632,34.6774,238.4931,0.0004095,6.235e-05,0.0,0 STARLINK-3252,1 49733U 21115K   22036.25001157  .00006235  00000-0  40950-3 0  9997,2 49733  53.2144  23.4632 0002743  34.6774 238.4931 15.08838130 11047,6917.886,95.438,541.649,537.854,0.0
49733.0,STARLINK-3252,PAYLOAD,2022-02-05 14:00:01,15.08866314,0.0002706,53.2141,21.9663,34.7747,249.9868,-0.0013210999999999,-0.00021269,0.0,0 STARLINK-3252,1 49733U 21115K   22036.58334491 -.00021269  00000-0 -13211-2 0  9998,2 49733  53.2141  21.9663 0002706  34.7747 249.9868 15.08866314  3582,6917.8,95.436,541.5369999999998,537.793,0.0
